SL-14 R/B               
1 16792U 86046B   25360.92740014  .00000695  00000+0  77330-4 0  9995
2 16792  82.4820 148.9152 0024576 107.5384 252.8520 14.85500607115606
SL-14 R/B               
1 16882U 86055B   25361.01104163  .00000581  00000+0  64289-4 0  9998
2 16882  82.5193 194.9622 0018151 208.8609 311.3020 14.85544634108572
AJISAI (EGS)            
1 16908U 86061A   25360.95218347 -.00000091  00000+0  42785-4 0  9990
2 16908  50.0112 317.0152 0011314 101.5842 304.4343 12.44514429458942
COSMOS 1812             
1 17295U 87003A   25360.81789261  .00122646  00000+0  70048-3 0  9992
2 17295  82.4865 276.7457 0006049  66.1662 294.0238 15.78495058132874
SL-14 R/B               
1 17567U 87024B   25360.85253203  .00000644  00000+0  70632-4 0  9996
2 17567  82.5278 161.1965 0019254 138.5769 221.6911 14.86038820 77319
COSMOS 1833             
1 17589U 87027A   25360.73439462  .00000305  00000+0  18889-3 0  9992
2 17589  70.9166 119.3588 0023159 312.2070  47.7085 14.13029209    14
SL-16 R/B               
1 17590U 87027B   25360.91946380 -.00000142  00000+0 -46457-4 0  9990
2 17590  71.0037  69.8397 0007180 244.9245 115.1134 14.17156508  5032
SL-14 R/B               
1 17912U 87038B   25360.74265642  .00000547  00000+0  60649-4 0  9992
2 17912  82.5009   5.5103 0020501  49.0312 311.2673 14.85274174 68401
COSMOS 1844             
1 17973U 87041A   25360.91731887  .00000354  00000+0  20889-3 0  9998
2 17973  70.8968 187.6679 0029446 134.6683 225.6846 14.14532856993291
SL-14 R/B               
1 18153U 87055B   25360.86679296  .00000570  00000+0  63058-4 0  9999
2 18153  82.4990  57.6743 0019222 253.0511 106.8598 14.85535650 59123
COSMOS 1867             
1 18187U 87060A   25360.78491658  .00000015  00000+0  43283-4 0  9999
2 18187  65.0093 150.8701 0013667 272.4787  87.4732 14.31488422  9504
SL-14 R/B               
1 18749U 88001B   25360.72261778  .00000520  00000+0  57343-4 0  9994
2 18749  82.5133 263.9965 0019452 117.2678 243.0522 14.85438040 31195
