CCSDS_OMM_VERS = 2.0
CREATION_DATE  = 
ORIGINATOR     = 

OBJECT_NAME    = SL-14 R/B
OBJECT_ID      = 1986-046B
CENTER_NAME    = EARTH
REF_FRAME      = TEME
TIME_SYSTEM    = UTC
MEAN_ELEMENT_THEORY = SGP/SGP4

EPOCH          = 2025-12-26T22:15:27.372096
MEAN_MOTION    = 14.85500607
ECCENTRICITY   = .00245762
INCLINATION    = 82.4820
RA_OF_ASC_NODE = 148.9152
ARG_OF_PERICENTER = 107.5384
MEAN_ANOMALY   = 252.8520

EPHEMERIS_TYPE = 0
CLASSIFICATION_TYPE = U
NORAD_CAT_ID   = 16792
ELEMENT_SET_NO = 999
REV_AT_EPOCH   = 11560
BSTAR          = .77330033E-4
MEAN_MOTION_DOT = .695E-5
MEAN_MOTION_DDOT = 0

CCSDS_OMM_VERS = 2.0
CREATION_DATE  = 
ORIGINATOR     = 

OBJECT_NAME    = SL-14 R/B
OBJECT_ID      = 1986-055B
CENTER_NAME    = EARTH
REF_FRAME      = TEME
TIME_SYSTEM    = UTC
MEAN_ELEMENT_THEORY = SGP/SGP4

EPOCH          = 2025-12-27T00:15:53.996832
MEAN_MOTION    = 14.85544634
ECCENTRICITY   = .00181519
INCLINATION    = 82.5193
RA_OF_ASC_NODE = 194.9622
ARG_OF_PERICENTER = 208.8609
MEAN_ANOMALY   = 311.3020

EPHEMERIS_TYPE = 0
CLASSIFICATION_TYPE = U
NORAD_CAT_ID   = 16882
ELEMENT_SET_NO = 999
REV_AT_EPOCH   = 10857
BSTAR          = .64288823E-4
MEAN_MOTION_DOT = .581E-5
MEAN_MOTION_DDOT = 0

CCSDS_OMM_VERS = 2.0
CREATION_DATE  = 
ORIGINATOR     = 

OBJECT_NAME    = AJISAI (EGS)
OBJECT_ID      = 1986-061A
CENTER_NAME    = EARTH
REF_FRAME      = TEME
TIME_SYSTEM    = UTC
MEAN_ELEMENT_THEORY = SGP/SGP4

EPOCH          = 2025-12-26T22:51:08.651808
MEAN_MOTION    = 12.44514429
ECCENTRICITY   = .00113141
INCLINATION    = 50.0112
RA_OF_ASC_NODE = 317.0152
ARG_OF_PERICENTER = 101.5842
MEAN_ANOMALY   = 304.4343

EPHEMERIS_TYPE = 0
CLASSIFICATION_TYPE = U
NORAD_CAT_ID   = 16908
ELEMENT_SET_NO = 999
REV_AT_EPOCH   = 45894
BSTAR          = .42785104E-4
MEAN_MOTION_DOT = -.91E-6
MEAN_MOTION_DDOT = 0

CCSDS_OMM_VERS = 2.0
CREATION_DATE  = 
ORIGINATOR     = 

OBJECT_NAME    = COSMOS 1812
OBJECT_ID      = 1987-003A
CENTER_NAME    = EARTH
REF_FRAME      = TEME
TIME_SYSTEM    = UTC
MEAN_ELEMENT_THEORY = SGP/SGP4

EPOCH          = 2025-12-26T19:37:45.921504
MEAN_MOTION    = 15.78495058
ECCENTRICITY   = .00060498
INCLINATION    = 82.4865
RA_OF_ASC_NODE = 276.7457
ARG_OF_PERICENTER = 66.1662
MEAN_ANOMALY   = 294.0238

EPHEMERIS_TYPE = 0
CLASSIFICATION_TYPE = U
NORAD_CAT_ID   = 17295
ELEMENT_SET_NO = 999
REV_AT_EPOCH   = 13287
BSTAR          = .70047928E-3
MEAN_MOTION_DOT = .122646E-2
MEAN_MOTION_DDOT = 0

CCSDS_OMM_VERS = 2.0
CREATION_DATE  = 
ORIGINATOR     = 

OBJECT_NAME    = SL-14 R/B
OBJECT_ID      = 1987-024B
CENTER_NAME    = EARTH
REF_FRAME      = TEME
TIME_SYSTEM    = UTC
MEAN_ELEMENT_THEORY = SGP/SGP4

EPOCH          = 2025-12-26T20:27:38.767392
MEAN_MOTION    = 14.86038820
ECCENTRICITY   = .00192549
INCLINATION    = 82.5278
RA_OF_ASC_NODE = 161.1965
ARG_OF_PERICENTER = 138.5769
MEAN_ANOMALY   = 221.6911

EPHEMERIS_TYPE = 0
CLASSIFICATION_TYPE = U
NORAD_CAT_ID   = 17567
ELEMENT_SET_NO = 999
REV_AT_EPOCH   = 7731
BSTAR          = .70632238E-4
MEAN_MOTION_DOT = .644E-5
MEAN_MOTION_DDOT = 0

CCSDS_OMM_VERS = 2.0
CREATION_DATE  = 
ORIGINATOR     = 

OBJECT_NAME    = COSMOS 1833
OBJECT_ID      = 1987-027A
CENTER_NAME    = EARTH
REF_FRAME      = TEME
TIME_SYSTEM    = UTC
MEAN_ELEMENT_THEORY = SGP/SGP4

EPOCH          = 2025-12-26T17:37:31.695168
MEAN_MOTION    = 14.13029209
ECCENTRICITY   = .00231597
INCLINATION    = 70.9166
RA_OF_ASC_NODE = 119.3588
ARG_OF_PERICENTER = 312.2070
MEAN_ANOMALY   = 47.7085

EPHEMERIS_TYPE = 0
CLASSIFICATION_TYPE = U
NORAD_CAT_ID   = 17589
ELEMENT_SET_NO = 999
REV_AT_EPOCH   = 1
BSTAR          = .18889429E-3
MEAN_MOTION_DOT = .305E-5
MEAN_MOTION_DDOT = 0

CCSDS_OMM_VERS = 2.0
CREATION_DATE  = 
ORIGINATOR     = 

OBJECT_NAME    = SL-16 R/B
OBJECT_ID      = 1987-027B
CENTER_NAME    = EARTH
REF_FRAME      = TEME
TIME_SYSTEM    = UTC
MEAN_ELEMENT_THEORY = SGP/SGP4

EPOCH          = 2025-12-26T22:04:01.672320
MEAN_MOTION    = 14.17156508
ECCENTRICITY   = .00071809
INCLINATION    = 71.0037
RA_OF_ASC_NODE = 69.8397
ARG_OF_PERICENTER = 244.9245
MEAN_ANOMALY   = 115.1134

EPHEMERIS_TYPE = 0
CLASSIFICATION_TYPE = U
NORAD_CAT_ID   = 17590
ELEMENT_SET_NO = 999
REV_AT_EPOCH   = 503
BSTAR          = -.46456773E-4
MEAN_MOTION_DOT = -.142E-5
MEAN_MOTION_DDOT = 0

CCSDS_OMM_VERS = 2.0
CREATION_DATE  = 
ORIGINATOR     = 

OBJECT_NAME    = SL-14 R/B
OBJECT_ID      = 1987-038B
CENTER_NAME    = EARTH
REF_FRAME      = TEME
TIME_SYSTEM    = UTC
MEAN_ELEMENT_THEORY = SGP/SGP4

EPOCH          = 2025-12-26T17:49:25.514688
MEAN_MOTION    = 14.85274174
ECCENTRICITY   = .00205018
INCLINATION    = 82.5009
RA_OF_ASC_NODE = 5.5103
ARG_OF_PERICENTER = 49.0312
MEAN_ANOMALY   = 311.2673

EPHEMERIS_TYPE = 0
CLASSIFICATION_TYPE = U
NORAD_CAT_ID   = 17912
ELEMENT_SET_NO = 999
REV_AT_EPOCH   = 6840
BSTAR          = .60649433E-4
MEAN_MOTION_DOT = .547E-5
MEAN_MOTION_DDOT = 0

CCSDS_OMM_VERS = 2.0
CREATION_DATE  = 
ORIGINATOR     = 

OBJECT_NAME    = COSMOS 1844
OBJECT_ID      = 1987-041A
CENTER_NAME    = EARTH
REF_FRAME      = TEME
TIME_SYSTEM    = UTC
MEAN_ELEMENT_THEORY = SGP/SGP4

EPOCH          = 2025-12-26T22:00:56.350368
MEAN_MOTION    = 14.14532856
ECCENTRICITY   = .00294468
INCLINATION    = 70.8968
RA_OF_ASC_NODE = 187.6679
ARG_OF_PERICENTER = 134.6683
MEAN_ANOMALY   = 225.6846

EPHEMERIS_TYPE = 0
CLASSIFICATION_TYPE = U
NORAD_CAT_ID   = 17973
ELEMENT_SET_NO = 999
REV_AT_EPOCH   = 99329
BSTAR          = .20889123E-3
MEAN_MOTION_DOT = .354E-5
MEAN_MOTION_DDOT = 0

CCSDS_OMM_VERS = 2.0
CREATION_DATE  = 
ORIGINATOR     = 

OBJECT_NAME    = SL-14 R/B
OBJECT_ID      = 1987-055B
CENTER_NAME    = EARTH
REF_FRAME      = TEME
TIME_SYSTEM    = UTC
MEAN_ELEMENT_THEORY = SGP/SGP4

EPOCH          = 2025-12-26T20:48:10.911744
MEAN_MOTION    = 14.85535650
ECCENTRICITY   = .00192229
INCLINATION    = 82.4990
RA_OF_ASC_NODE = 57.6743
ARG_OF_PERICENTER = 253.0511
MEAN_ANOMALY   = 106.8598

EPHEMERIS_TYPE = 0
CLASSIFICATION_TYPE = U
NORAD_CAT_ID   = 18153
ELEMENT_SET_NO = 999
REV_AT_EPOCH   = 5912
BSTAR          = .63058185E-4
MEAN_MOTION_DOT = .57E-5
MEAN_MOTION_DDOT = 0

CCSDS_OMM_VERS = 2.0
CREATION_DATE  = 
ORIGINATOR     = 

OBJECT_NAME    = COSMOS 1867
OBJECT_ID      = 1987-060A
CENTER_NAME    = EARTH
REF_FRAME      = TEME
TIME_SYSTEM    = UTC
MEAN_ELEMENT_THEORY = SGP/SGP4

EPOCH          = 2025-12-26T18:50:16.792512
MEAN_MOTION    = 14.31488422
ECCENTRICITY   = .00136679
INCLINATION    = 65.0093
RA_OF_ASC_NODE = 150.8701
ARG_OF_PERICENTER = 272.4787
MEAN_ANOMALY   = 87.4732

EPHEMERIS_TYPE = 0
CLASSIFICATION_TYPE = U
NORAD_CAT_ID   = 18187
ELEMENT_SET_NO = 999
REV_AT_EPOCH   = 950
BSTAR          = .43282983E-4
MEAN_MOTION_DOT = .15E-6
MEAN_MOTION_DDOT = 0

CCSDS_OMM_VERS = 2.0
CREATION_DATE  = 
ORIGINATOR     = 

OBJECT_NAME    = SL-14 R/B
OBJECT_ID      = 1988-001B
CENTER_NAME    = EARTH
REF_FRAME      = TEME
TIME_SYSTEM    = UTC
MEAN_ELEMENT_THEORY = SGP/SGP4

EPOCH          = 2025-12-26T17:20:34.176192
MEAN_MOTION    = 14.85438040
ECCENTRICITY   = .00194521
INCLINATION    = 82.5133
RA_OF_ASC_NODE = 263.9965
ARG_OF_PERICENTER = 117.2678
MEAN_ANOMALY   = 243.0522

EPHEMERIS_TYPE = 0
CLASSIFICATION_TYPE = U
NORAD_CAT_ID   = 18749
ELEMENT_SET_NO = 999
REV_AT_EPOCH   = 3119
BSTAR          = .57343082E-4
MEAN_MOTION_DOT = .52E-5
MEAN_MOTION_DDOT = 0

